STARLINK-30095          
1 56289U 23056D   23122.33334491  .00194939  00000+0  11713-2 0  9995
2 56289  43.0015 125.4242 0000548 254.6824  97.8327 15.76394429  2494
STARLINK-30103          
1 56290U 23056E   23122.33334491 -.01192103  00000+0 -20430-1 0  9996
2 56290  43.0020 126.3490 0001317 267.9710  70.6737 15.52983352  2489
STARLINK-30113          
1 56291U 23056F   23122.33334491 -.01189650  00000+0 -20370-1 0  9993
2 56291  43.0019 126.3470 0001333 269.8965  69.5571 15.53002043  2480
STARLINK-30098          
1 56292U 23056G   23122.33334491 -.01195175  00000+0 -20450-1 0  9992
2 56292  43.0016 126.3440 0001322 272.5939  68.0654 15.53033619  2484
STARLINK-30090          
1 56293U 23056H   23122.33334491 -.01190193  00000+0 -20366-1 0  9994
2 56293  43.0019 126.3456 0001369 267.5200  72.7390 15.53020817  2486
STARLINK-30049          
1 56294U 23056J   23122.00002315 -.00629436  00000+0 -84452-2 0  9999
2 56294  43.0020 128.1962 0001528 257.1848  59.2350 15.59178944  2433
STARLINK-30083          
1 56295U 23056K   23122.33334491  .00210412  00000+0  12376-2 0  9993
2 56295  43.0016 125.4042 0000551 232.0081 128.5990 15.76830721  2497
STARLINK-30089          
1 56296U 23056L   23122.00002315  .00237315  00000+0  13177-2 0  9996
2 56296  43.0012 127.3604 0000797 190.6049 102.8020 15.78045565  2444
STARLINK-30086          
1 56297U 23056M   23122.33334491 -.00619417  00000+0 -84396-2 0  9996
2 56297  43.0020 126.2202 0001383 269.3895 121.9035 15.58744721  2481
STARLINK-30109          
1 56298U 23056N   23122.33334491 -.00618194  00000+0 -84307-2 0  9990
2 56298  43.0020 126.2234 0001404 268.6393 121.5334 15.58716439  2489
STARLINK-30108          
1 56299U 23056P   23122.00002315  .00133785  00000+0  11135-2 0  9997
2 56299  43.0021 127.9354 0001362 254.5592 167.7263 15.68951504  2433
STARLINK-30104          
1 56300U 23056Q   23122.33334491 -.01172073  00000+0 -20230-1 0  9990
2 56300  43.0025 126.3334 0001377 273.7229  71.4613 15.53195972  2485
STARLINK-30101          
1 56301U 23056R   23122.33334491 -.01172492  00000+0 -20231-1 0  9997
2 56301  43.0023 126.3326 0001363 271.9950  73.6056 15.53205594  2488
STARLINK-30111          
1 56302U 23056S   23122.33334491 -.00626053  00000+0 -85246-2 0  9992
2 56302  43.0022 126.2166 0001469 271.3783 121.4698 15.58782570  2487
STARLINK-30097          
1 56303U 23056T   23122.33334491 -.00618804  00000+0 -84226-2 0  9995
2 56303  43.0019 126.2175 0001359 272.2979 120.1693 15.58769755  2480
STARLINK-30099          
1 56304U 23056U   23122.33334491 -.00899258  00000+0 -15385-1 0  9999
2 56304  43.0022 126.3223 0000665 269.7767  80.0448 15.53148741  2488
STARLINK-30094          
1 56305U 23056V   23122.33334491 -.00622671  00000+0 -84676-2 0  9993
2 56305  43.0022 126.2134 0001433 272.6071 121.4071 15.58805567  2487
STARLINK-30112          
1 56306U 23056W   23122.33334491 -.00623130  00000+0 -84798-2 0  9990
2 56306  43.0021 126.2157 0001438 273.8954 119.3537 15.58788643  2488
2023-057A               
1 56308U 23057A   23121.99967818  .00000660  00000+0  00000+0 0  9995
2 56308   9.8873 240.2396 0022781 356.4466   3.5930 14.88285228  1435
2023-057B               
1 56309U 23057B   23121.95647830  .00000687  00000+0  00000+0 0  9990
2 56309   9.9891 239.9484 0008383 145.1781 215.1296 14.95027168  1436
2023-057C               
1 56310U 23057C   23121.96073526  .00000681  00000+0  00000+0 0  9992
2 56310   9.9840 239.9915 0006588 167.0468 193.1498 14.94355543  1430
ARKSAT 1                
1 56311U 98067VC  23121.82807788  .00046661  00000+0  76809-3 0  9998
2 56311  51.6391 198.2194 0007894 295.8531  64.1644 15.51837839  1150
AURORASAT               
1 56312U 98067VD  23121.69935177  .00048704  00000+0  80171-3 0  9995
2 56312  51.6390 198.8597 0007823 295.0225  64.9952 15.51819855  1166
EX-ALTA-2               
1 56313U 98067VE  23121.82824566  .00046951  00000+0  77370-3 0  9999
2 56313  51.6390 198.2203 0007751 294.8721  65.1463 15.51806120  1175
LIGHTCUBE               
1 56314U 98067VF  23122.21546903  .00063005  00000+0  10364-2 0  9998
2 56314  51.6389 196.3073 0007755 281.5136  78.4983 15.51728730  1269
NEUDOSE                 
1 56315U 98067VG  23122.21600575  .00041661  00000+0  69572-3 0  9995
2 56315  51.6390 196.3095 0007889 278.9549  81.0547 15.51486441  1213
YUKONSAT                
1 56316U 98067VH  23121.70064909  .00044434  00000+0  74086-3 0  9991
2 56316  51.6389 198.8679 0007755 277.3934  82.6174 15.51502233  1154
2023-059A               
1 56367U 23059A   23120.51372977  .00000048  00000+0  00000+0 0  9995
2 56367   8.5993  20.3727 1878039 184.9357 172.9286  7.26274931   148
2023-059B               
1 56368U 23059B   23121.75055293  .00000048  00000+0  00000+0 0  9992
2 56368   8.6025  18.5996 1879380 188.4477 167.8985  7.26396259   210
2023-059C               
1 56369U 23059C   23121.74938067  .00000048  00000+0  00000+0 0  9991
2 56369   8.5971  18.5878 1880533 188.5500 167.7500  7.26703921   208
2023-060A               
1 56370U 23060A   23121.59004476 -.00000041  00000+0  00000+0 0  9990
2 56370   0.0688  33.3509 0009411 146.1450  30.9749  1.04628736    03
2023-060B               
1 56371U 23060B   23121.54986192 -.00000043  00000+0  00000+0 0  9992
2 56371   0.0642  37.1198 0009767 202.0008 316.3033  1.04765439    04
